OBJECT_NAME,OBJECT_ID,EPOCH,MEAN_MOTION,ECCENTRICITY,INCLINATION,RA_OF_ASC_NODE,ARG_OF_PERICENTER,MEAN_ANOMALY,EPHEMERIS_TYPE,CLASSIFICATION_TYPE,NORAD_CAT_ID,ELEMENT_SET_NO,REV_AT_EPOCH,BSTAR,MEAN_MOTION_DOT,MEAN_MOTION_DDOT
STARLINK-32677,2025-032R,2026-07-03T23:31:03.414432,15.27654201,.00012376,43.0021,39.4308,274.1985,85.8725,0,U,63020,999,7839,.18581779E-2,.51344E-3,0
STARLINK-32929,2025-032S,2026-07-03T23:36:37.763424,15.27608043,.00014046,43.0035,39.4594,271.3993,88.6698,0,U,63021,999,7840,.10693318E-2,.29306E-3,0
STARLINK-32944,2025-032T,2026-07-04T00:02:31.964640,15.27622484,.00018231,43.0026,39.5978,273.2468,86.8175,0,U,63022,999,7840,.13538123E-2,.37229E-3,0
STARLINK-32943,2025-032U,2026-07-04T00:33:46.641600,15.27570805,.00016207,43.0003,38.8971,274.4096,85.6571,0,U,63023,999,7841,.97157971E-3,.26563E-3,0
STARLINK-32803,2025-032V,2026-07-03T21:19:55.196256,15.27597001,.00006571,42.9974,39.6021,234.5196,125.5594,0,U,63024,999,7823,.83716575E-3,.22858E-3,0
STARLINK-32926,2025-032W,2026-07-04T00:18:59.231520,15.27629025,.00009781,42.9986,38.8073,275.3465,84.7275,0,U,63025,999,7841,.1530992E-2,.42172E-3,0
GLOBAL-31,2025-033B,2026-07-03T21:10:42.654432,15.38122987,.00106778,58.9973,248.6728,51.9543,308.2494,0,U,63027,999,7689,.3549797E-3,.13159E-3,0
STARLINK-32798,2025-034A,2026-07-04T00:43:03.150912,15.34424770,.00005347,53.1586,90.1969,90.1411,269.9653,0,U,63029,999,7672,.13575927E-2,.45809E-3,0
STARLINK-32779,2025-034B,2026-07-04T00:46:05.041056,15.34412901,.00015532,53.1584,90.2152,107.2862,252.8311,0,U,63030,999,7672,.8641761E-3,.28946E-3,0
STARLINK-32716,2025-034C,2026-07-04T02:49:14.353536,15.34427941,.00011464,53.1577,75.8295,107.5579,252.5548,0,U,63031,999,7693,.11702479E-2,.39406E-3,0
STARLINK-32776,2025-034D,2026-07-04T01:48:45.809280,15.34451589,.00010348,53.1584,76.2748,63.5381,296.5728,0,U,63032,999,7692,.14828632E-2,.50143E-3,0
STARLINK-32772,2025-034E,2026-07-04T02:28:51.611232,15.31741149,.00013962,53.1605,77.1628,115.9067,244.2079,0,U,63033,999,7691,.1377902E-2,.42693E-3,0
STARLINK-32830,2025-034F,2026-07-03T17:38:34.485504,15.31706924,.00009381,53.1589,78.4186,74.9848,285.1257,0,U,63034,999,7686,.10673546E-2,.32909E-3,0
STARLINK-32801,2025-034G,2026-07-03T17:38:35.579328,15.34400574,.00013201,53.1578,77.7076,95.0295,265.0858,0,U,63035,999,7686,.10224319E-2,.34327E-3,0
STARLINK-32818,2025-034H,2026-07-04T00:00:52.260768,15.30205456,.00009519,53.1574,77.9402,80.6837,279.4271,0,U,63036,999,7689,.87310941E-3,.25593E-3,0
STARLINK-32810,2025-034J,2026-07-03T16:53:16.458144,15.34411499,.00012453,53.1591,78.2250,77.8412,282.2730,0,U,63037,999,7686,.81292413E-3,.27199E-3,0
STARLINK-32812,2025-034K,2026-07-04T01:41:01.334112,15.30169466,.00011432,53.1580,77.6555,125.1908,234.9200,0,U,63038,999,7690,.12227535E-2,.35997E-3,0
STARLINK-32811,2025-034L,2026-07-04T02:34:12.731520,15.34452856,.00010394,53.1593,76.4737,91.0076,269.1046,0,U,63039,999,7692,.13583706E-2,.45877E-3,0
STARLINK-32832,2025-034M,2026-07-04T02:55:36.261408,15.31737737,.00010475,53.1573,76.5647,102.9036,257.2082,0,U,63040,999,7692,.11823309E-2,.36547E-3,0
STARLINK-32820,2025-034N,2026-07-04T03:07:26.860800,15.30228538,.00010107,53.1566,77.3214,115.7059,244.4046,0,U,63041,999,7691,.12309796E-2,.36309E-3,0
STARLINK-32795,2025-034P,2026-07-03T23:50:44.587968,15.34416341,.00011344,53.1584,76.4760,112.6176,247.4946,0,U,63042,999,7691,.11119439E-2,.374E-3,0
STARLINK-32827,2025-034Q,2026-07-04T02:31:17.756832,15.34435046,.00013414,53.1580,88.5342,84.6477,275.4679,0,U,63043,999,7675,.12098639E-2,.40769E-3,0
STARLINK-32735,2025-034R,2026-07-04T03:37:49.376352,15.34449936,.00008711,53.1579,88.1145,74.3698,285.7401,0,U,63044,999,7676,.14264596E-2,.48206E-3,0
STARLINK-32828,2025-034S,2026-07-04T00:55:10.341696,15.34423944,.00013351,53.1593,90.2426,93.6821,266.4334,0,U,63045,999,7672,.12216364E-2,.41157E-3,0
STARLINK-32738,2025-034T,2026-07-03T16:50:14.651808,15.34395213,.00011424,53.1601,78.2068,98.6740,261.4392,0,U,63046,999,7686,.78662957E-3,.2629E-3,0
STARLINK-32590,2025-034U,2026-07-04T00:02:23.221824,15.30213577,.00011231,53.1577,77.9428,115.9037,244.2080,0,U,63047,999,7688,.88935998E-3,.26085E-3,0
STARLINK-32790,2025-034V,2026-07-04T02:28:09.751296,15.34429912,.00010358,53.1593,76.4418,99.0287,261.0833,0,U,63048,999,7692,.10878158E-2,.36592E-3,0
STARLINK-32829,2025-034W,2026-07-04T04:02:02.153472,15.34468513,.00009574,53.1577,88.2151,86.6453,273.4659,0,U,63049,999,7676,.15194476E-2,.51426E-3,0
STARLINK-32816,2025-034X,2026-07-04T02:25:14.244384,15.34415198,.00012123,53.1583,88.5031,73.5882,286.5254,0,U,63050,999,7675,.91787223E-3,.30778E-3,0
STARLINK-32835,2025-034Y,2026-07-04T00:33:15.852960,15.34415110,.00013766,53.1576,88.7395,95.8366,264.2793,0,U,63051,999,7674,.81643978E-3,.27322E-3,0
