STARLINK-32677          
1 63020U 25032R   26184.97990063  .00051344  00000+0  18582-2 0  9999
2 63020  43.0021  39.4308 0001237 274.1985  85.8725 15.27654201 78394
STARLINK-32929          
1 63021U 25032S   26184.98377041  .00029306  00000+0  10693-2 0  9994
2 63021  43.0035  39.4594 0001404 271.3993  88.6698 15.27608043 78406
STARLINK-32944          
1 63022U 25032T   26185.00175885  .00037229  00000+0  13538-2 0  9995
2 63022  43.0026  39.5978 0001823 273.2468  86.8175 15.27622484 78402
STARLINK-32943          
1 63023U 25032U   26185.02345650  .00026563  00000+0  97158-3 0  9997
2 63023  43.0003  38.8971 0001620 274.4096  85.6571 15.27570805 78415
STARLINK-32803          
1 63024U 25032V   26184.88883329  .00022858  00000+0  83717-3 0  9990
2 63024  42.9974  39.6021 0000657 234.5196 125.5594 15.27597001 78239
STARLINK-32926          
1 63025U 25032W   26185.01318555  .00042172  00000+0  15310-2 0  9995
2 63025  42.9986  38.8073 0000978 275.3465  84.7275 15.27629025 78413
GLOBAL-31               
1 63027U 25033B   26184.88243813  .00013159  00000+0  35498-3 0  9999
2 63027  58.9973 248.6728 0010677  51.9543 308.2494 15.38122987 76892
STARLINK-32798          
1 63029U 25034A   26185.02989758  .00045809  00000+0  13576-2 0  9993
2 63029  53.1586  90.1969 0000534  90.1411 269.9653 15.34424770 76721
STARLINK-32779          
1 63030U 25034B   26185.03200279  .00028946  00000+0  86418-3 0  9999
2 63030  53.1584  90.2152 0001553 107.2862 252.8311 15.34412901 76723
STARLINK-32716          
1 63031U 25034C   26185.11752724  .00039406  00000+0  11702-2 0  9992
2 63031  53.1577  75.8295 0001146 107.5579 252.5548 15.34427941 76931
STARLINK-32776          
1 63032U 25034D   26185.07553020  .00050143  00000+0  14829-2 0  9990
2 63032  53.1584  76.2748 0001034  63.5381 296.5728 15.34451589 76928
STARLINK-32772          
1 63033U 25034E   26185.10337513  .00042693  00000+0  13779-2 0  9996
2 63033  53.1605  77.1628 0001396 115.9067 244.2079 15.31741149 76913
STARLINK-32830          
1 63034U 25034F   26184.73512136  .00032909  00000+0  10674-2 0  9991
2 63034  53.1589  78.4186 0000938  74.9848 285.1257 15.31706924 76868
STARLINK-32801          
1 63035U 25034G   26184.73513402  .00034327  00000+0  10224-2 0  9996
2 63035  53.1578  77.7076 0001320  95.0295 265.0858 15.34400574 76862
STARLINK-32818          
1 63036U 25034H   26185.00060487  .00025593  00000+0  87311-3 0  9995
2 63036  53.1574  77.9402 0000951  80.6837 279.4271 15.30205456 76894
STARLINK-32810          
1 63037U 25034J   26184.70366271  .00027199  00000+0  81292-3 0  9998
2 63037  53.1591  78.2250 0001245  77.8412 282.2730 15.34411499 76862
STARLINK-32812          
1 63038U 25034K   26185.07015433  .00035997  00000+0  12228-2 0  9998
2 63038  53.1580  77.6555 0001143 125.1908 234.9200 15.30169466 76907
STARLINK-32811          
1 63039U 25034L   26185.10709180  .00045877  00000+0  13584-2 0  9996
2 63039  53.1593  76.4737 0001039  91.0076 269.1046 15.34452856 76924
STARLINK-32832          
1 63040U 25034M   26185.12194747  .00036547  00000+0  11823-2 0  9995
2 63040  53.1573  76.5647 0001047 102.9036 257.2082 15.31737737 76921
STARLINK-32820          
1 63041U 25034N   26185.13017200  .00036309  00000+0  12310-2 0  9993
2 63041  53.1566  77.3214 0001010 115.7059 244.4046 15.30228538 76910
STARLINK-32795          
1 63042U 25034P   26184.99357162  .00037400  00000+0  11119-2 0  9990
2 63042  53.1584  76.4760 0001134 112.6176 247.4946 15.34416341 76917
STARLINK-32827          
1 63043U 25034Q   26185.10506663  .00040769  00000+0  12099-2 0  9997
2 63043  53.1580  88.5342 0001341  84.6477 275.4679 15.34435046 76755
STARLINK-32735          
1 63044U 25034R   26185.15126593  .00048206  00000+0  14265-2 0  9994
2 63044  53.1579  88.1145 0000871  74.3698 285.7401 15.34449936 76760
STARLINK-32828          
1 63045U 25034S   26185.03831414  .00041157  00000+0  12216-2 0  9999
2 63045  53.1593  90.2426 0001335  93.6821 266.4334 15.34423944 76729
STARLINK-32738          
1 63046U 25034T   26184.70155847  .00026290  00000+0  78663-3 0  9992
2 63046  53.1601  78.2068 0001142  98.6740 261.4392 15.34395213 76860
STARLINK-32590          
1 63047U 25034U   26185.00165766  .00026085  00000+0  88936-3 0  9994
2 63047  53.1577  77.9428 0001123 115.9037 244.2080 15.30213577 76883
STARLINK-32790          
1 63048U 25034V   26185.10289064  .00036592  00000+0  10878-2 0  9997
2 63048  53.1593  76.4418 0001035  99.0287 261.0833 15.34429912 76920
STARLINK-32829          
1 63049U 25034W   26185.16808048  .00051426  00000+0  15194-2 0  9992
2 63049  53.1577  88.2151 0000957  86.6453 273.4659 15.34468513 76762
STARLINK-32816          
1 63050U 25034X   26185.10085931  .00030778  00000+0  91787-3 0  9996
2 63050  53.1583  88.5031 0001212  73.5882 286.5254 15.34415198 76753
STARLINK-32835          
1 63051U 25034Y   26185.02310015  .00027322  00000+0  81644-3 0  9994
2 63051  53.1576  88.7395 0001376  95.8366 264.2793 15.34415110 76740
